[{"OBJECT_NAME":"STARLINK-33705","OBJECT_ID":"2025-083T","EPOCH":"2026-03-09T04:53:25.708992","MEAN_MOTION":15.27563268,"ECCENTRICITY":0.00016351,"INCLINATION":43.0039,"RA_OF_ASC_NODE":7.8515,"ARG_OF_PERICENTER":243.9404,"MEAN_ANOMALY":116.1279,"EPHEMERIS_TYPE":0,"CLASSIFICATION_TYPE":"U","NORAD_CAT_ID":63651,"ELEMENT_SET_NO":999,"REV_AT_EPOCH":5002,"BSTAR":0.0008192392,"MEAN_MOTION_DOT":0.00022338,"MEAN_MOTION_DDOT":0},{"OBJECT_NAME":"OV1-19","OBJECT_ID":"1969-025C","EPOCH":"2026-03-09T21:47:24.425376","MEAN_MOTION":9.583977,"ECCENTRICITY":0.26774515,"INCLINATION":104.7313,"RA_OF_ASC_NODE":210.85,"ARG_OF_PERICENTER":145.6894,"MEAN_ANOMALY":235.034,"EPHEMERIS_TYPE":0,"CLASSIFICATION_TYPE":"U","NORAD_CAT_ID":3825,"ELEMENT_SET_NO":999,"REV_AT_EPOCH":97573,"BSTAR":0.0005405909,"MEAN_MOTION_DOT":1.098e-5,"MEAN_MOTION_DDOT":0}]
